{
    "links": {
        "self": "http://www.neowsapp.com/rest/v1/neo/3933021?api_key=iIulBulltgU6a56xZRHN4H3l9WmuAYTsLGpBGhQ2"
    },
    "id": "3933021",
    "neo_reference_id": "3933021",
    "name": "(2019 XP3)",
    "designation": "2019 XP3",
    "nasa_jpl_url": "http://ssd.jpl.nasa.gov/sbdb.cgi?sstr=3933021",
    "absolute_magnitude_h": 24.3,
    "estimated_diameter": {
        "kilometers": {
            "estimated_diameter_min": 0.0366906138,
            "estimated_diameter_max": 0.0820427065
        },
        "meters": {
            "estimated_diameter_min": 36.6906137531,
            "estimated_diameter_max": 82.0427064882
        },
        "miles": {
            "estimated_diameter_min": 0.0227984834,
            "estimated_diameter_max": 0.0509789586
        },
        "feet": {
            "estimated_diameter_min": 120.3760332259,
            "estimated_diameter_max": 269.1689931548
        }
    },
    "is_potentially_hazardous_asteroid": false,
    "close_approach_data": [
        {
            "close_approach_date": "2017-11-19",
            "close_approach_date_full": "2017-Nov-19 20:25",
            "epoch_date_close_approach": 1511123100000,
            "relative_velocity": {
                "kilometers_per_second": "16.9602804424",
                "kilometers_per_hour": "61057.0095927959",
                "miles_per_hour": "37938.4513217014"
            },
            "miss_distance": {
                "astronomical": "0.4154759856",
                "lunar": "161.6201583984",
                "kilometers": "62154322.481910672",
                "miles": "38620905.1150923936"
            },
            "orbiting_body": "Earth"
        },
        {
            "close_approach_date": "2019-12-23",
            "close_approach_date_full": "2019-Dec-23 06:22",
            "epoch_date_close_approach": 1577082120000,
            "relative_velocity": {
                "kilometers_per_second": "8.861369878",
                "kilometers_per_hour": "31900.9315609173",
                "miles_per_hour": "19821.9982801711"
            },
            "miss_distance": {
                "astronomical": "0.0467094345",
                "lunar": "18.1699700205",
                "kilometers": "6987631.910104515",
                "miles": "4341913.131751707"
            },
            "orbiting_body": "Earth"
        },
        {
            "close_approach_date": "2022-01-30",
            "close_approach_date_full": "2022-Jan-30 20:09",
            "epoch_date_close_approach": 1643573340000,
            "relative_velocity": {
                "kilometers_per_second": "16.9285877041",
                "kilometers_per_hour": "60942.9157346056",
                "miles_per_hour": "37867.5578352053"
            },
            "miss_distance": {
                "astronomical": "0.4503865267",
                "lunar": "175.2003588863",
                "kilometers": "67376865.071018129",
                "miles": "41866042.6009390202"
            },
            "orbiting_body": "Earth"
        }
    ],
    "orbital_data": {
        "orbit_id": "10",
        "orbit_determination_date": "2020-09-11 07:45:54",
        "first_observation_date": "2019-12-15",
        "last_observation_date": "2020-01-13",
        "data_arc_in_days": 29,
        "observations_used": 49,
        "orbit_uncertainty": "7",
        "minimum_orbit_intersection": ".0444802",
        "jupiter_tisserand_invariant": "4.214",
        "epoch_osculation": "2459000.5",
        "eccentricity": ".3679667457928416",
        "semi_major_axis": "1.622931311786512",
        "inclination": "14.00675679240654",
        "ascending_node_longitude": "268.1925908169268",
        "orbital_period": "755.1767938364422",
        "perihelion_distance": "1.025746558343122",
        "perihelion_argument": "187.9520579266753",
        "aphelion_distance": "2.220116065229903",
        "perihelion_time": "2458846.261027654493",
        "mean_anomaly": "73.52719323153397",
        "mean_motion": ".4767095638242951",
        "equinox": "J2000",
        "orbit_class": {
            "orbit_class_type": "AMO",
            "orbit_class_description": "Near-Earth asteroid orbits similar to that of 1221 Amor",
            "orbit_class_range": "1.017 AU < q (perihelion) < 1.3 AU"
        }
    },
    "is_sentry_object": false
}